{"type":"FeatureCollection","features":[{"type":"Feature","geometry":{"type":"Point","coordinates":[69.42229,41.47251]},"properties":{"region":"Turkistan Region","district":"Saryagashsky District","place":"Saryagash","zone":"Arid, hot","habitat":"Cropland (alfalfa)","vegetation":"Medicago sativa","approx":false,"n_species":5,"total":38.0,"records":[["Calliptamus italicus",12.0],["Oedaleus decorus",12.0],["Omocestus petraeus",8.0],["Dociostaurus brevicollis",4.0],["Chorthippus karelini",2.0]]}},{"type":"Feature","geometry":{"type":"Point","coordinates":[68.066735,41.934168]},"properties":{"region":"Turkistan Region","district":"Shardarinsky District","place":"Syutkent","zone":"Arid, hot","habitat":"Cropland (maize)","vegetation":"Zea mays","approx":false,"n_species":5,"total":60.0,"records":[["Calliptamus italicus",28.0],["Calliptamus barbarus",16.0],["Aiolopus thalassinus",8.0],["Calliptamus turanicus",4.0],["Notostaurus albicornis",4.0]]}},{"type":"Feature","geometry":{"type":"Point","coordinates":[69.8825,42.20622]},"properties":{"region":"Turkistan Region","district":"Tolebiysky District","place":"Lenger","zone":"Arid, hot","habitat":"Forb steppe","vegetation":"Achillea nobilis, Potentilla spp., Galium verum, Centaurea spp.","approx":false,"n_species":4,"total":52.0,"records":[["Calliptamus italicus",24.0],["Oedaleus decorus",20.0],["Euchorthippus pulvinatus",4.0],["Stenobothrus eurasius eurasius",4.0]]}},{"type":"Feature","geometry":{"type":"Point","coordinates":[68.745767,42.400236]},"properties":{"region":"Turkistan Region","district":"Arys","place":"Arys","zone":"Arid, hot","habitat":"Wormwood–grass steppe","vegetation":"Artemisia austriaca, Artemisia marschalliana, Artemisia lerchiana, Stipa spp., Festuca valesiaca, Koeleria cristata","approx":false,"n_species":7,"total":68.0,"records":[["Calliptamus barbarus",28.0],["Oedaleus decorus",12.0],["Calliptamus italicus",8.0],["Arcyptera microptera",8.0],["Dociostaurus morocconus",4.0],["Oedipoda miniata",4.0],["Chorthippus maritimus",4.0]]}},{"type":"Feature","geometry":{"type":"Point","coordinates":[69.002381,42.443112]},"properties":{"region":"Turkistan Region","district":"Ordabasinsky District","place":"Aqzhol","zone":"Arid, hot","habitat":"Cropland (alfalfa)","vegetation":"Medicago sativa","approx":false,"n_species":9,"total":168.0,"records":[["Semenoviana tamerlana",56.0],["Arcyptera microptera",36.0],["Notostaurus albicornis",28.0],["Dociostaurus tartarus",20.0],["Mecosthetus alliaceus",12.0],["Chorthippus maritimus",4.0],["Tettigonia caudata",4.0],["Calliptamus barbarus",4.0],["Locusta migratoria",4.0]]}},{"type":"Feature","geometry":{"type":"Point","coordinates":[69.924244,42.480016]},"properties":{"region":"Turkistan Region","district":"Sayramsky District","place":"Zhibek Zholy","zone":"Semi-arid, hot","habitat":"Cropland (wheat)","vegetation":"Triticum aestivum","approx":false,"n_species":7,"total":76.0,"records":[["Calliptamus barbarus",28.0],["Arcyptera microptera",12.0],["Notostaurus albicornis",12.0],["Oedaleus decorus",8.0],["Calliptamus italicus",8.0],["Calliptamus turanicus",4.0],["Ramburiella bolivari",4.0]]}},{"type":"Feature","geometry":{"type":"Point","coordinates":[70.83892,42.697006]},"properties":{"region":"Jambyl Region","district":"Zhualynsky District","place":"Burnooktyabrskoe","zone":"Arid, hot","habitat":"Fescue–wormwood steppe","vegetation":"Artemisia austriaca, Artemisia marschalliana, Artemisia lerchiana, Stipa lessingiana, Stipa capillata, Stipa sareptana","approx":false,"n_species":9,"total":52.0,"records":[["Pezotmethis nigrescens",52.0],["Pyrgodera armata",null],["Arcyptera microptera",null],["Ramburiella turcomana",null],["Stenobothrus fischeri",null],["Oedaleus decorus",null],["Sphingonotus sp.",null],["Oedipoda miniata",null],["Acrida oxycephala",null]]}},{"type":"Feature","geometry":{"type":"Point","coordinates":[68.36938,42.81515]},"properties":{"region":"Turkistan Region","district":"Otyrarsky District","place":"Shaulder","zone":"Arid, hot","habitat":"Cropland (maize)","vegetation":"Zea mays","approx":false,"n_species":4,"total":52.0,"records":[["Oedaleus decorus",24.0],["Calliptamus italicus",20.0],["Dociostaurus brevicollis",4.0],["Chorthippus karelini",4.0]]}},{"type":"Feature","geometry":{"type":"Point","coordinates":[71.139348,42.820991]},"properties":{"region":"Jambyl Region","district":"Taraz","place":"Taraz","zone":"Arid, hot","habitat":"Forb steppe","vegetation":"Achillea nobilis, Potentilla spp., Galium verum, Centaurea spp.","approx":false,"n_species":9,"total":160.0,"records":[["Ramburiella turcomana",44.0],["Pezotmethis nigrescens",32.0],["Sphingonotus sp.",24.0],["Oedipoda miniata",24.0],["Pyrgodera armata",8.0],["Mantis religiosa",8.0],["Stenobothrus fischeri",8.0],["Calliptamus italicus",8.0],["Oedaleus decorus",4.0]]}},{"type":"Feature","geometry":{"type":"Point","coordinates":[67.530072,42.969886]},"properties":{"region":"Jambyl Region","district":"Bayzaksky District","place":"Zhauqashty","zone":"Arid, hot","habitat":"Wormwood steppe","vegetation":"Artemisia austriaca, Artemisia marschalliana, Artemisia lerchiana","approx":false,"n_species":7,"total":96.0,"records":[["Calliptamus barbarus",52.0],["Oedipoda miniata",16.0],["Notostaurus albicornis",12.0],["Calliptamus italicus",4.0],["Arcyptera microptera",4.0],["Oedipoda caerulescens",4.0],["Oedaleus decorus",4.0]]}},{"type":"Feature","geometry":{"type":"Point","coordinates":[69.40099,43.06385]},"properties":{"region":"Turkistan Region","district":"Baydibeksky District","place":"Shayan","zone":"Arid, hot","habitat":"Forb steppe","vegetation":"Achillea nobilis, Potentilla spp., Galium verum, Centaurea spp.","approx":false,"n_species":6,"total":80.0,"records":[["Chorthippus karelini",24.0],["Dociostaurus brevicollis",24.0],["Euchorthippus pulvinatus",12.0],["Oedaleus decorus",12.0],["Calliptamus italicus",4.0],["Omocestus haemorrhoidalis",4.0]]}},{"type":"Feature","geometry":{"type":"Point","coordinates":[76.521218,43.167772]},"properties":{"region":"Almaty Region","district":"Karasaysky District","place":"Taskyn","zone":"Semi-arid, hot","habitat":"Grass steppe","vegetation":"Stipa spp., Festuca valesiaca, Koeleria cristata","approx":false,"n_species":7,"total":72.0,"records":[["Stenobothrus fischeri",36.0],["Dociostaurus brevicollis",12.0],["Calliptamus italicus",8.0],["Calliptamus barbarus",4.0],["Euchorthippus pulvinatus",4.0],["Oedaleus decorus",4.0],["Arcyptera microptera",4.0]]}},{"type":"Feature","geometry":{"type":"Point","coordinates":[51.807497,43.17545]},"properties":{"region":"Mangystau Region","district":"Karakiyansky District","place":"Kuryk","zone":"Arid, hot","habitat":"Meadow steppe (forbs)","vegetation":"Achillea nobilis, Potentilla spp., Galium verum, Centaurea spp.","approx":false,"n_species":1,"total":20.0,"records":[["Calliptamus barbarus",20.0]]}},{"type":"Feature","geometry":{"type":"Point","coordinates":[76.379614,43.197404]},"properties":{"region":"Almaty Region","district":"Zhambylsky District","place":"Sholak-Kargaly","zone":"Semi-arid, hot","habitat":"Forb steppe","vegetation":"Achillea nobilis, Potentilla spp., Galium verum, Centaurea spp.","approx":false,"n_species":5,"total":80.0,"records":[["Stenobothrus fischeri",32.0],["Arcyptera microptera",16.0],["Oedipoda miniata",12.0],["Dociostaurus brevicollis",12.0],["Calliptamus italicus",8.0]]}},{"type":"Feature","geometry":{"type":"Point","coordinates":[69.431312,43.458823]},"properties":{"region":"Turkistan Region","district":"Suzaksky District","place":"Sauranbay","zone":"Arid, hot","habitat":"Forb steppe","vegetation":"Achillea nobilis, Potentilla spp., Galium verum, Centaurea spp.","approx":false,"n_species":8,"total":64.0,"records":[["Calliptamus barbarus",28.0],["Oedipoda miniata",12.0],["Dociostaurus kraussi",4.0],["Oedipoda caerulescens",4.0],["Dociostaurus tartarus",4.0],["Oedaleus decorus",4.0],["Chorthippus maritimus",4.0],["Tettigonia viridissima",4.0]]}},{"type":"Feature","geometry":{"type":"Point","coordinates":[77.084863,43.48561]},"properties":{"region":"Almaty Region","district":"Talgarsky District","place":"Kaynar","zone":"Semi-arid, hot","habitat":"Forb steppe","vegetation":"Achillea nobilis, Potentilla spp., Galium verum, Centaurea spp.","approx":false,"n_species":6,"total":116.0,"records":[["Stenobothrus fischeri",60.0],["Oedaleus decorus",16.0],["Calliptamus barbarus",12.0],["Calliptamus italicus",12.0],["Arcyptera microptera",12.0],["Dociostaurus brevicollis",4.0]]}},{"type":"Feature","geometry":{"type":"Point","coordinates":[67.864563,43.488324]},"properties":{"region":"Turkistan Region","district":"Sauransky District","place":"Razezd Nomer Tridtsat","zone":"Arid, hot","habitat":"Cropland (alfalfa)","vegetation":"Medicago sativa","approx":false,"n_species":8,"total":176.0,"records":[["Calliptamus barbarus",40.0],["Calliptamus barbarus",32.0],["Oedipoda miniata",24.0],["Notostaurus albicornis",20.0],["Notostaurus albicornis",12.0],["Calliptamus italicus",12.0],["Calliptamus turanicus",8.0],["Arcyptera microptera",8.0],["Oedipoda miniata",8.0],["Dociostaurus tartarus",4.0],["Platycleis intermedia",4.0],["Arcyptera microptera",4.0]]}},{"type":"Feature","geometry":{"type":"Point","coordinates":[51.329754,43.728089]},"properties":{"region":"Mangystau Region","district":"Munaylinsky District","place":"Mangistau","zone":"Arid, hot","habitat":"Wormwood–grass steppe","vegetation":"Artemisia austriaca, Artemisia marschalliana, Artemisia lerchiana, Stipa spp., Festuca valesiaca, Koeleria cristata, K. Prostrata","approx":false,"n_species":1,"total":8.0,"records":[["Calliptamus barbarus",8.0]]}},{"type":"Feature","geometry":{"type":"Point","coordinates":[51.329754,43.72809]},"properties":{"region":"Mangystau Region","district":"Munaylinsky District","place":"Mangistau","zone":"Arid, hot","habitat":"Wormwood–grass steppe","vegetation":"Artemisia austriaca, Artemisia marschalliana, Artemisia lerchiana, Stipa spp., Festuca valesiaca, Koeleria cristata, K. Prostrata","approx":false,"n_species":1,"total":12.0,"records":[["Schistocerca gregaria",12.0]]}},{"type":"Feature","geometry":{"type":"Point","coordinates":[71.830761,43.826273]},"properties":{"region":"Jambyl Region","district":"Zhambylsky District","place":"Dzhuvalinsky Shtab","zone":"Arid, hot","habitat":"Forb steppe","vegetation":"Achillea nobilis, Potentilla spp., Galium verum, Centaurea spp.","approx":false,"n_species":5,"total":76.0,"records":[["Calliptamus barbarus",36.0],["Calliptamus italicus",20.0],["Oedipoda miniata",8.0],["Oedaleus decorus",8.0],["Euchorthippus pulvinatus",4.0]]}},{"type":"Feature","geometry":{"type":"Point","coordinates":[76.294165,43.964823]},"properties":{"region":"Almaty Region","district":"Iliysky District","place":"Akshy","zone":"Arid, hot","habitat":"Wormwood–grass steppe","vegetation":"Artemisia austriaca, Artemisia marschalliana, Artemisia lerchiana, Stipa spp., Festuca valesiaca, Koeleria cristata","approx":false,"n_species":10,"total":144.0,"records":[["Chorthippus paralellus",52.0],["Chorthippus dichrous",28.0],["Chrysochraon dispar",16.0],["Conocephalus discolor",12.0],["Euchorthippus pulvinatus",12.0],["Notostaurus albicornis",8.0],["Bicolorana bicolor",4.0],["Chorthippus angulatus",4.0],["Mecosthetus alliaceus",4.0],["Dociostaurus tartarus",4.0]]}},{"type":"Feature","geometry":{"type":"Point","coordinates":[67.22025,44.00922]},"properties":{"region":"Kyzylorda Region","district":"Zhanakorgansky District","place":"Zhanakorgan","zone":"Arid, hot","habitat":"Wormwood steppe","vegetation":"Artemisia austriaca, Artemisia marschalliana, Artemisia lerchiana","approx":false,"n_species":5,"total":60.0,"records":[["Calliptamus italicus",40.0],["Aiolopus thalassinus",8.0],["Ramburiella turcomana",4.0],["Asiotmethis muricatus australis",4.0],["Dociostaurus tartarus",4.0]]}},{"type":"Feature","geometry":{"type":"Point","coordinates":[66.834132,44.202112]},"properties":{"region":"Kyzylorda Region","district":"Shieliysky District","place":"Enbekshi","zone":"Arid, hot","habitat":"Cropland (alfalfa)","vegetation":"Medicago sativa","approx":false,"n_species":7,"total":104.0,"records":[["Locusta migratoria",32.0],["Calliptamus barbarus",28.0],["Calliptamus italicus",24.0],["Oedaleus decorus",8.0],["Oedipoda miniata",4.0],["Dociostaurus tartarus",4.0],["Stenobothrus eurasius",4.0]]}},{"type":"Feature","geometry":{"type":"Point","coordinates":[50.45447,44.299065]},"properties":{"region":"Mangystau Region","district":"Tupkaragansky District","place":"Kyzyl-Uzen","zone":"Humid, moderately warm","habitat":"Meadow steppe (forbs)","vegetation":"Achillea nobilis, Potentilla spp., Galium verum, Centaurea spp.","approx":false,"n_species":2,"total":20.0,"records":[["Calliptamus barbarus",16.0],["Oedipoda miniata",4.0]]}},{"type":"Feature","geometry":{"type":"Point","coordinates":[76.697212,44.582253]},"properties":{"region":"Almaty Region","district":"Balkhashsky District","place":"Akzhar","zone":"Arid, hot","habitat":"Riparian shrubs and woodland","vegetation":"Elaeagnus angustifolia, Tamarix","approx":false,"n_species":7,"total":88.0,"records":[["Calliptamus barbarus",52.0],["Thrinchus arenosus",8.0],["Dociostaurus brevicollis",8.0],["Pyrgomorpha bispinosa",8.0],["Ramburiella turcomana",4.0],["Chrotogonus turanicus",4.0],["Chorthippus biguttulus",4.0]]}},{"type":"Feature","geometry":{"type":"Point","coordinates":[64.64657,45.09739]},"properties":{"region":"Kyzylorda Region","district":"Zhalagashsky District","place":"Zhalagash","zone":"Arid, hot","habitat":"Riparian shrubs and woodland","vegetation":"Elaeagnus angustifolia, Tamarix","approx":false,"n_species":3,"total":80.0,"records":[["Calliptamus italicus",64.0],["Dociostaurus maroccanus",12.0],["Chorthippus maritimus",4.0]]}},{"type":"Feature","geometry":{"type":"Point","coordinates":[64.21925,45.10654]},"properties":{"region":"Kyzylorda Region","district":"Karmakshinsky District","place":"selo Aqtobe","zone":"Arid, hot","habitat":"Cropland (alfalfa) and wormwood steppe","vegetation":"Medicago sativa, Artemisia austriaca, Artemisia marschalliana, Artemisia lerchiana","approx":false,"n_species":3,"total":56.0,"records":[["Calliptamus italicus",48.0],["Calliptamus barbarus",4.0],["Oedaleus decorus",4.0]]}},{"type":"Feature","geometry":{"type":"Point","coordinates":[77.944943,45.137838]},"properties":{"region":"Jetisu Region","district":"Karatalsky District","place":"Aydar","zone":"Arid, hot","habitat":"Forb steppe","vegetation":"Achillea nobilis, Potentilla spp., Galium verum, Centaurea spp.","approx":false,"n_species":11,"total":160.0,"records":[["Calliptamus turanicus",44.0],["Chorthippus angulatus",24.0],["Calliptamus italicus",16.0],["Euchorthippus pulvinatus",16.0],["Chorthippus biguttulus",12.0],["Omocestus haemorrhoidalis",12.0],["Ramburiella turcomana",12.0],["Notostaurus albicornis",8.0],["Chorthippus dorsatus",8.0],["Pyrgodera armata",4.0],["Platycleis intermedia",4.0]]}},{"type":"Feature","geometry":{"type":"Point","coordinates":[77.994932,45.239732]},"properties":{"region":"Jetisu Region","district":"Karatalsky District","place":"Ushtobe","zone":"Arid, hot","habitat":"Grass–forb steppe","vegetation":"Stipa spp., Festuca valesiaca, Koeleria cristata, Achillea nobilis, Potentilla spp., Galium verum, Centaurea spp.","approx":false,"n_species":10,"total":176.0,"records":[["Notostaurus albicornis",60.0],["Calliptamus italicus",24.0],["Celes variabilis",24.0],["Dociostaurus brevicollis",16.0],["Dociostaurus tartarus",16.0],["Oedaleus decorus",12.0],["Calliptamus turanicus",12.0],["Oedipoda miniata",4.0],["Ramburiella foveolata",4.0],["Pyrgomorpha bispinosa",4.0]]}},{"type":"Feature","geometry":{"type":"Point","coordinates":[55.39523,45.312691]},"properties":{"region":"Mangystau Region","district":"Beyneusky District","place":"Beyneu","zone":"Arid, hot","habitat":"Grass steppe","vegetation":"Stipa spp., Festuca valesiaca, Koeleria cristata, K. Prostrata","approx":true,"n_species":2,"total":24.0,"records":[["Calliptamus barbarus",20.0],["Schistocerca gregaria",4.0]]}},{"type":"Feature","geometry":{"type":"Point","coordinates":[72.239329,45.511602]},"properties":{"region":"Jambyl Region","district":"Talassky District","place":"Tyuken","zone":"Semi-arid, warm","habitat":"Forb steppe","vegetation":"Achillea nobilis, Potentilla spp., Galium verum, Centaurea spp.","approx":false,"n_species":7,"total":92.0,"records":[["Oedipoda miniata",32.0],["Calliptamus barbarus",16.0],["Calliptamus italicus",12.0],["Euchorthippus pulvinatus",12.0],["Arcyptera microptera",8.0],["Notostaurus albicornis",8.0],["Egnotius apicolis",4.0]]}},{"type":"Feature","geometry":{"type":"Point","coordinates":[63.936621,45.60495]},"properties":{"region":"Kyzylorda Region","district":"Karmakshinsky District","place":"Razezd Nomer Sto Sem-A","zone":"Arid, warm","habitat":"Cropland (alfalfa) and wormwood steppe","vegetation":"Medicago sativa, Artemisia austriaca, Artemisia marschalliana, Artemisia lerchiana","approx":false,"n_species":7,"total":68.0,"records":[["Calliptamus barbarus",24.0],["Oedaleus decorus",12.0],["Euchorthippus pulvinatus",12.0],["Arcyptera microptera",8.0],["Calliptamus italicus",4.0],["Oeclipoda cocrulescens",4.0],["Notostaurus albicornis",4.0]]}},{"type":"Feature","geometry":{"type":"Point","coordinates":[62.12676,45.99139]},"properties":{"region":"Kyzylorda Region","district":"Kazalinsky District","place":"Qazaly","zone":"Arid, warm","habitat":"Riparian shrubs and woodland","vegetation":"Elaeagnus angustifolia, Tamarix","approx":false,"n_species":5,"total":40.0,"records":[["Calliptamus italicus",20.0],["Oedaleus decorus",8.0],["Asiotmethis muricatus australis",4.0],["Hilethera turanica",4.0],["Chorthippus maritimus",4.0]]}},{"type":"Feature","geometry":{"type":"Point","coordinates":[46.782819,46.782819]},"properties":{"region":"Atyrau Region","district":"Isataysky District","place":"Isatay","zone":"Arid, hot","habitat":"Wormwood–feather grass steppe","vegetation":"Artemisia austriaca, Artemisia marschalliana, Artemisia lerchiana, Stipa lessingiana, Stipa capillata, Stipa sareptana","approx":true,"n_species":2,"total":12.0,"records":[["Oedipoda miniata",8.0],["Oedaleus decorus",4.0]]}},{"type":"Feature","geometry":{"type":"Point","coordinates":[50.108777,46.782819]},"properties":{"region":"Atyrau Region","district":"Isataysky District","place":"Isatay","zone":"Arid, hot","habitat":"Wormwood–feather grass steppe","vegetation":"Artemisia austriaca, Artemisia marschalliana, Artemisia lerchiana, Stipa lessingiana, Stipa capillata, Stipa sareptana","approx":true,"n_species":1,"total":80.0,"records":[["Calliptamus barbarus",80.0]]}},{"type":"Feature","geometry":{"type":"Point","coordinates":[54.148402,46.82679]},"properties":{"region":"Atyrau Region","district":"Zhylyoysky District","place":"Kulsary","zone":"Arid, hot","habitat":"Forb steppe","vegetation":"Achillea nobilis, Potentilla spp., Galium verum, Centaurea spp.","approx":true,"n_species":1,"total":20.0,"records":[["Calliptamus barbarus",20.0]]}},{"type":"Feature","geometry":{"type":"Point","coordinates":[54.148403,46.826791]},"properties":{"region":"Atyrau Region","district":"Zhylyoysky District","place":"Kulsary","zone":"Arid, hot","habitat":"Forb steppe","vegetation":"Achillea nobilis, Potentilla spp., Galium verum, Centaurea spp.","approx":true,"n_species":1,"total":12.0,"records":[["Omocestus haemorrhoidalis",12.0]]}},{"type":"Feature","geometry":{"type":"Point","coordinates":[54.148404,46.826792]},"properties":{"region":"Atyrau Region","district":"Zhylyoysky District","place":"Kulsary","zone":"Arid, hot","habitat":"Forb steppe","vegetation":"Achillea nobilis, Potentilla spp., Galium verum, Centaurea spp.","approx":true,"n_species":1,"total":12.0,"records":[["Chorthippus biguttulus",12.0]]}},{"type":"Feature","geometry":{"type":"Point","coordinates":[67.842485,47.715864]},"properties":{"region":"Ulytau Region","district":"Zhezkazgan","place":"Zhezgazgan","zone":"Semi-arid, warm","habitat":"Ruderal (roadside, forbs)","vegetation":"Achillea nobilis, Chenopodium spp., Artemisia spp.","approx":true,"n_species":5,"total":72.0,"records":[["Calliptamus barbarus",44.0],["Oedipoda miniata",12.0],["Calliptamus italicus",8.0],["Notostaurus albicornis",4.0],["Dociostaurus tartarus",4.0]]}},{"type":"Feature","geometry":{"type":"Point","coordinates":[51.426517,47.784375]},"properties":{"region":"Atyrau Region","district":"Makhambetsky District","place":"Makhambet","zone":"Arid, warm","habitat":"Wormwood–feather grass steppe","vegetation":"Artemisia austriaca, Artemisia marschalliana, Artemisia lerchiana, Stipa lessingiana, Stipa capillata, Stipa sareptana","approx":false,"n_species":5,"total":112.0,"records":[["Calliptamus barbarus",48.0],["Dociostaurus brevicollis",20.0],["Chorthippus biguttulus",20.0],["Omocestus haemorrhoidalis",16.0],["Notostaurus albicornis",8.0]]}},{"type":"Feature","geometry":{"type":"Point","coordinates":[67.530421,47.96655]},"properties":{"region":"Ulytau Region","district":"Satpaev","place":"Satpaev","zone":"Semi-arid, warm","habitat":"Forb steppe","vegetation":"Achillea nobilis, Potentilla spp., Galium verum, Centaurea spp.","approx":true,"n_species":1,"total":32.0,"records":[["Calliptamus barbarus",32.0]]}},{"type":"Feature","geometry":{"type":"Point","coordinates":[67.530422,47.966551]},"properties":{"region":"Ulytau Region","district":"Satpaev","place":"Satpaev","zone":"Semi-arid, warm","habitat":"Forb steppe","vegetation":"Achillea nobilis, Potentilla spp., Galium verum, Centaurea spp.","approx":true,"n_species":1,"total":4.0,"records":[["Oedipoda miniata",4.0]]}},{"type":"Feature","geometry":{"type":"Point","coordinates":[67.530423,47.966552]},"properties":{"region":"Ulytau Region","district":"Satpaev","place":"Satpaev","zone":"Semi-arid, warm","habitat":"Forb steppe","vegetation":"Achillea nobilis, Potentilla spp., Galium verum, Centaurea spp.","approx":true,"n_species":1,"total":4.0,"records":[["Chorthippus biguttulus",4.0]]}},{"type":"Feature","geometry":{"type":"Point","coordinates":[67.530424,47.966553]},"properties":{"region":"Ulytau Region","district":"Satpaev","place":"Satpaev","zone":"Semi-arid, warm","habitat":"Forb steppe","vegetation":"Achillea nobilis, Potentilla spp., Galium verum, Centaurea spp.","approx":true,"n_species":1,"total":12.0,"records":[["Chorthippus karelini",12.0]]}},{"type":"Feature","geometry":{"type":"Point","coordinates":[67.530425,47.966554]},"properties":{"region":"Ulytau Region","district":"Satpaev","place":"Satpaev","zone":"Semi-arid, warm","habitat":"Forb steppe","vegetation":"Achillea nobilis, Potentilla spp., Galium verum, Centaurea spp.","approx":true,"n_species":1,"total":4.0,"records":[["Oedaleus decorus",4.0]]}},{"type":"Feature","geometry":{"type":"Point","coordinates":[67.040228,48.635101]},"properties":{"region":"Ulytau Region","district":"Ulytausky District","place":"Ulytau","zone":"Semi-arid, warm","habitat":"Wormwood steppe","vegetation":"Artemisia austriaca, Artemisia marschalliana, Artemisia lerchiana","approx":false,"n_species":6,"total":76.0,"records":[["Calliptamus barbarus",36.0],["Chorthippus biguttulus",16.0],["Notostaurus albicornis",12.0],["Chorthippus albomarginatus",4.0],["Oedipoda miniata",4.0],["Mioscirtus wagneri",4.0]]}},{"type":"Feature","geometry":{"type":"Point","coordinates":[71.612885,48.753428]},"properties":{"region":"Ulytau Region","district":"Zhanaarkinsky District","place":"Zhanaarka","zone":"Semi-arid, warm","habitat":"Forb steppe","vegetation":"Achillea nobilis, Potentilla spp., Galium verum, Centaurea spp.","approx":true,"n_species":1,"total":36.0,"records":[["Calliptamus barbarus",36.0]]}},{"type":"Feature","geometry":{"type":"Point","coordinates":[71.612885,48.753429]},"properties":{"region":"Ulytau Region","district":"Zhanaarkinsky District","place":"Zhanaarka","zone":"Semi-arid, warm","habitat":"Forb steppe","vegetation":"Achillea nobilis, Potentilla spp., Galium verum, Centaurea spp.","approx":true,"n_species":1,"total":4.0,"records":[["Oedipoda miniata",4.0]]}},{"type":"Feature","geometry":{"type":"Point","coordinates":[71.612885,48.75343]},"properties":{"region":"Ulytau Region","district":"Zhanaarkinsky District","place":"Zhanaarka","zone":"Semi-arid, warm","habitat":"Forb steppe","vegetation":"Achillea nobilis, Potentilla spp., Galium verum, Centaurea spp.","approx":true,"n_species":1,"total":12.0,"records":[["Chorthippus albomarginatus",12.0]]}},{"type":"Feature","geometry":{"type":"Point","coordinates":[71.612885,48.753431]},"properties":{"region":"Ulytau Region","district":"Zhanaarkinsky District","place":"Zhanaarka","zone":"Semi-arid, warm","habitat":"Forb steppe","vegetation":"Achillea nobilis, Potentilla spp., Galium verum, Centaurea spp.","approx":true,"n_species":1,"total":12.0,"records":[["Chorthippus biguttulus",12.0]]}},{"type":"Feature","geometry":{"type":"Point","coordinates":[71.612885,48.753432]},"properties":{"region":"Ulytau Region","district":"Zhanaarkinsky District","place":"Zhanaarka","zone":"Semi-arid, warm","habitat":"Forb steppe","vegetation":"Achillea nobilis, Potentilla spp., Galium verum, Centaurea spp.","approx":true,"n_species":1,"total":12.0,"records":[["Dociostaurus brevicollis",12.0]]}},{"type":"Feature","geometry":{"type":"Point","coordinates":[71.612885,48.753433]},"properties":{"region":"Ulytau Region","district":"Zhanaarkinsky District","place":"Zhanaarka","zone":"Semi-arid, warm","habitat":"Forb steppe","vegetation":"Achillea nobilis, Potentilla spp., Galium verum, Centaurea spp.","approx":true,"n_species":1,"total":4.0,"records":[["Omocestus haemorrhoidalis",4.0]]}},{"type":"Feature","geometry":{"type":"Point","coordinates":[53.78361,48.89441]},"properties":{"region":"Atyrau Region","district":"Kzylkoginsky District","place":"Miyaly","zone":"Semi-arid, warm","habitat":"Grass steppe","vegetation":"Stipa spp., Festuca valesiaca, Koeleria cristata, K. Prostrata","approx":false,"n_species":4,"total":72.0,"records":[["Calliptamus barbarus",40.0],["Oedaleus decorus",16.0],["Oedipoda miniata",8.0],["Chorthippus biguttulus",8.0]]}},{"type":"Feature","geometry":{"type":"Point","coordinates":[79.289967,48.966645]},"properties":{"region":"Abai Region","district":"Abaysky District","place":"Karaaul","zone":"Semi-arid, warm","habitat":"Grass steppe","vegetation":"Stipa spp., Festuca valesiaca, Koeleria cristata","approx":false,"n_species":9,"total":132.0,"records":[["Mecosthetus alliaceus",28.0],["Dociostaurus brevicollis",28.0],["Ruspolia nitidula",20.0],["Chorthippus dichrous",16.0],["Omocestus haemorrhoidalis",12.0],["Bicolorana bicolor",12.0],["Chorthippus paralellus",8.0],["Oedipoda caerulescens",4.0],["Calliptamus italicus",4.0]]}},{"type":"Feature","geometry":{"type":"Point","coordinates":[57.00372,49.34001]},"properties":{"region":"Aktobe Region","district":"Kargalinsky District","place":"Temir","zone":"Semi-arid, warm","habitat":"Wormwood–grass steppe","vegetation":"Artemisia austriaca, Artemisia marschalliana, Artemisia lerchiana, Stipa spp., Festuca valesiaca, Koeleria cristata","approx":false,"n_species":5,"total":84.0,"records":[["Calliptamus italicus",64.0],["Chorthippus biguttulus",8.0],["Chorthippus albomarginatus",4.0],["Oedaleus decorus",4.0],["Ramburiella bolivari",4.0]]}},{"type":"Feature","geometry":{"type":"Point","coordinates":[75.566623,49.43832]},"properties":{"region":"Karaganda Region","district":"Karkaralinsky District","place":"Karkaralinsk","zone":"Semi-arid, warm","habitat":"Meadow steppe (forbs)","vegetation":"Achillea nobilis, Potentilla spp., Galium verum, Centaurea spp.","approx":false,"n_species":5,"total":48.0,"records":[["Calliptamus italicus",32.0],["Euchorthippus pulvinatus",4.0],["Dociostaurus brevicollis",4.0],["Dociostaurus tartarus",4.0],["Chorthippus karelini",4.0]]}},{"type":"Feature","geometry":{"type":"Point","coordinates":[63.65478,49.56008]},"properties":{"region":"Kostanay Region","district":"Zhangildinsky District","place":"Basaga","zone":"Semi-arid, warm","habitat":"Feather grass–fescue–wormwood steppe","vegetation":"Artemisia austriaca, Artemisia marschalliana, Artemisia lerchiana, Stipa lessingiana, Stipa capillata, Stipa sareptana, Festuca valesiaca","approx":false,"n_species":4,"total":72.0,"records":[["Calliptamus italicus",32.0],["Acryptera microptera",24.0],["Asiotmethis muricatus australis",8.0],["Oedipoda minita",8.0]]}},{"type":"Feature","geometry":{"type":"Point","coordinates":[63.66251,49.56521]},"properties":{"region":"Kostanay Region","district":"Zhangildinsky District","place":"Basaga","zone":"Semi-arid, warm","habitat":"Grass–feather grass steppe","vegetation":"Stipa lessingiana, Stipa capillata, Stipa sareptana, Festuca valesiaca, Koeleria cristata","approx":false,"n_species":8,"total":116.0,"records":[["Calliptamus italicus",32.0],["Calliptamus italicus",20.0],["Eremippus sp.",20.0],["Oedaleus decorus",12.0],["Decticus verrucivorus",8.0],["Acryptera microptera",8.0],["Oedipoda minita",8.0],["Gampsocleis glabra",4.0],["Bryodemella tuberculata",4.0]]}},{"type":"Feature","geometry":{"type":"Point","coordinates":[72.822476,49.567077]},"properties":{"region":"Karaganda Region","district":"Abaysky District","place":"Abay","zone":"Semi-arid, warm","habitat":"Wormwood–grass steppe","vegetation":"Artemisia austriaca, Artemisia marschalliana, Artemisia lerchiana, Stipa spp., Festuca valesiaca, Koeleria cristata","approx":false,"n_species":7,"total":84.0,"records":[["Euchorthippus pulvinatus",32.0],["Oedaleus decorus",12.0],["Dociostaurus brevicollis",12.0],["Omocestus petraeus",12.0],["Chorthippus karelini",8.0],["Calliptamus italicus",4.0],["Omocestus haemorrhoidalis",4.0]]}},{"type":"Feature","geometry":{"type":"Point","coordinates":[75.226936,49.575037]},"properties":{"region":"Karaganda Region","district":"Karkaralinsky District","place":"Edilbek","zone":"Semi-arid, warm","habitat":"Meadow steppe (forbs)","vegetation":"Achillea nobilis, Potentilla spp., Galium verum, Centaurea spp.","approx":false,"n_species":7,"total":80.0,"records":[["Oedaleus decorus",16.0],["Bryodemella tuberculata",16.0],["Celes variabilis",12.0],["Arcyptera microptera",12.0],["Calliptamus italicus",12.0],["Notostaurus albicornis",8.0],["Eremippus sp.",4.0]]}},{"type":"Feature","geometry":{"type":"Point","coordinates":[63.6769,49.65048]},"properties":{"region":"Kostanay Region","district":"Zhangildinsky District","place":"Kalam-Karasu","zone":"Semi-arid, warm","habitat":"Fescue–wormwood steppe","vegetation":"Artemisia austriaca, Artemisia marschalliana, Artemisia lerchiana, Festuca valesiaca","approx":false,"n_species":2,"total":48.0,"records":[["Calliptamus italicus",40.0],["Ramburiella turcomana",8.0]]}},{"type":"Feature","geometry":{"type":"Point","coordinates":[53.59844,49.697257]},"properties":{"region":"West Kazakhstan Region","district":"Karatobinsky District","place":"Karatobe","zone":"Semi-arid, warm","habitat":"Grass–wormwood steppe","vegetation":"Artemisia austriaca, Artemisia marschalliana, Artemisia lerchiana, Stipa spp., Festuca valesiaca, Koeleria cristata","approx":false,"n_species":4,"total":40.0,"records":[["Calliptamus italicus",28.0],["Oedaleus decorus",4.0],["Euchorthippus pulvinatus",4.0],["Platycleis intermedia",4.0]]}},{"type":"Feature","geometry":{"type":"Point","coordinates":[63.6216,49.72057]},"properties":{"region":"Kostanay Region","district":"Zhangildinsky District","place":"Kalam-Karasu","zone":"Semi-arid, warm","habitat":"Ruderal (roadside, forbs)","vegetation":"Achillea nobilis, Chenopodium spp., Artemisia spp.","approx":false,"n_species":5,"total":36.0,"records":[["Calliptamus italicus",12.0],["Calliptamus barbarus",12.0],["Notostaurus albicornis",4.0],["Gampsocleis glabra",4.0],["Decticus verrucivorus",4.0]]}},{"type":"Feature","geometry":{"type":"Point","coordinates":[63.6216,49.72097]},"properties":{"region":"Kostanay Region","district":"Zhangildinsky District","place":"Kalam-Karasu","zone":"Semi-arid, warm","habitat":"Grass–wormwood steppe","vegetation":"Artemisia austriaca, Artemisia marschalliana, Artemisia lerchiana, Stipa spp., Festuca valesiaca, Koeleria cristata","approx":false,"n_species":6,"total":72.0,"records":[["Calliptamus italicus",28.0],["Dociostaurus brevicollis",28.0],["Celes variabilis",4.0],["Oedipoda caerulescens",4.0],["Oedipoda miniata",4.0],["Euchorthippus pulvinatus",4.0]]}},{"type":"Feature","geometry":{"type":"Point","coordinates":[57.212262,49.788633]},"properties":{"region":"Aktobe Region","district":"Alginsky District","place":"Novoukrainka","zone":"Semi-arid, warm","habitat":"Wormwood–grass steppe","vegetation":"Artemisia austriaca, Artemisia marschalliana, Artemisia lerchiana, Stipa spp., Festuca valesiaca, Koeleria cristata","approx":false,"n_species":5,"total":64.0,"records":[["Calliptamus italicus",36.0],["Chorthippus biguttulus",12.0],["Euchorthippus pulvinatus",8.0],["Oedaleus decorus",4.0],["Chorthippus albomarginatus",4.0]]}},{"type":"Feature","geometry":{"type":"Point","coordinates":[66.50857,50.07715]},"properties":{"region":"Kostanay Region","district":"Arkalyksky District","place":"Ashutasty","zone":"Semi-arid, warm","habitat":"Fescue–couch grass steppe","vegetation":"Festuca valesiaca, Elytrigia repens","approx":false,"n_species":6,"total":36.0,"records":[["Chorthippus biguttulus",8.0],["Notostaurus albicornis",8.0],["Omocestus haemorrhoidalis",8.0],["Dociostaurus brevicollis",4.0],["Dociostaurus kraussi",4.0],["Celes variabilis",4.0]]}},{"type":"Feature","geometry":{"type":"Point","coordinates":[66.5586,50.09966]},"properties":{"region":"Kostanay Region","district":"Arkalyksky District","place":"Ashutasty","zone":"Semi-arid, warm","habitat":"Grass–wormwood steppe","vegetation":"Artemisia austriaca, Artemisia marschalliana, Artemisia lerchiana, Stipa spp., Festuca valesiaca, Koeleria cristata","approx":false,"n_species":7,"total":136.0,"records":[["Calliptamus italicus",48.0],["Notostaurus albicornis",24.0],["Notostaurus albicornis",20.0],["Oedaleus decorus",20.0],["Platycleis intermedia",8.0],["Arcyptera microptera",4.0],["Oedipoda miniata",4.0],["Calliptamus italicus",4.0],["Ramburiella turcomana",4.0]]}},{"type":"Feature","geometry":{"type":"Point","coordinates":[66.48628,50.13436]},"properties":{"region":"Kostanay Region","district":"Arkalyksky District","place":"Koktau","zone":"Semi-arid, warm","habitat":"Couch grass–fescue steppe","vegetation":"Festuca valesiaca, Elytrigia repens","approx":false,"n_species":7,"total":40.0,"records":[["Calliptamus italicus",12.0],["Chorthippus biguttulus",8.0],["Ramburiella turcomana",4.0],["Euchorthippus pulvinatus",4.0],["Notostaurus albicornis",4.0],["Eremippus sp.",4.0],["Sphingonotus coerulipes uvarovianus",4.0]]}},{"type":"Feature","geometry":{"type":"Point","coordinates":[51.15001,50.148395]},"properties":{"region":"West Kazakhstan Region","district":"Akzhaiksky District","place":"Chapaev","zone":"Semi-arid, warm","habitat":"Grass–wormwood steppe","vegetation":"Artemisia austriaca, Artemisia marschalliana, Artemisia lerchiana, Stipa spp., Festuca valesiaca, Koeleria cristata","approx":false,"n_species":7,"total":68.0,"records":[["Calliptamus italicus",28.0],["Oedaleus decorus",12.0],["Euchorthippus pulvinatus",12.0],["Calliptamus barbarus cephalotes",4.0],["Dociostaurus tartarus",4.0],["Stenobothrus eurasius",4.0],["Oedipoda miniata",4.0]]}},{"type":"Feature","geometry":{"type":"Point","coordinates":[73.907558,50.15361]},"properties":{"region":"Karaganda Region","district":"Bukhar-Zhyrausky District","place":"Chayly","zone":"Humid, moderately warm","habitat":"Grass–feather grass steppe","vegetation":"Stipa lessingiana, Stipa capillata, Stipa sareptana, Festuca valesiaca, Koeleria cristata","approx":false,"n_species":3,"total":32.0,"records":[["Oedaleus decorus",20.0],["Dociostaurus brevicollis",8.0],["Calliptamus italicus",4.0]]}},{"type":"Feature","geometry":{"type":"Point","coordinates":[73.807862,50.153617]},"properties":{"region":"Karaganda Region","district":"Bukhar-Zhyrausky District","place":"Zhastlek","zone":"Semi-arid, warm","habitat":"Wormwood–grass–forb steppe","vegetation":"Artemisia austriaca, Artemisia marschalliana, Artemisia lerchiana, Stipa spp., Festuca valesiaca, Koeleria cristata, Achillea nobilis, Potentilla spp., Galium verum, Centaurea spp.","approx":false,"n_species":4,"total":68.0,"records":[["Calliptamus italicus",28.0],["Oedaleus decorus",28.0],["Chorthippus biguttulus",8.0],["Dociostaurus brevicollis",4.0]]}},{"type":"Feature","geometry":{"type":"Point","coordinates":[65.24341,50.17246]},"properties":{"region":"Kostanay Region","district":"Amangeldinsky District","place":"Esir","zone":"Semi-arid, warm","habitat":"Fescue–feather grass steppe","vegetation":"Stipa lessingiana, Stipa capillata, Stipa sareptana, Festuca valesiaca","approx":false,"n_species":5,"total":72.0,"records":[["Calliptamus italicus",44.0],["Oedaleus decorus",8.0],["Notostaurus albicornis",8.0],["Arcyptera microptera",8.0],["Eremippus sp.",4.0]]}},{"type":"Feature","geometry":{"type":"Point","coordinates":[65.233772,50.2088]},"properties":{"region":"Kostanay Region","district":"Amangeldinsky District","place":"Ekpindi","zone":"Semi-arid, warm","habitat":"Grass–feather grass steppe","vegetation":"Stipa lessingiana, Stipa capillata, Stipa sareptana, Festuca valesiaca, Koeleria cristata","approx":false,"n_species":6,"total":44.0,"records":[["Dociostaurus brevicollis",20.0],["Chorthippus albomarginatus",8.0],["Euchorthippus pulvinatus",4.0],["Celes variabilis",4.0],["Oedipoda caerulescens",4.0],["Conocephalus fuscus",4.0]]}},{"type":"Feature","geometry":{"type":"Point","coordinates":[65.3147,50.24657]},"properties":{"region":"Kostanay Region","district":"Amangeldinsky District","place":"Agaydar","zone":"Semi-arid, warm","habitat":"Grass–fescue–feather grass steppe","vegetation":"Stipa lessingiana, Stipa capillata, Stipa sareptana, Festuca valesiaca, Koeleria cristata","approx":false,"n_species":7,"total":64.0,"records":[["Chorthippus albomarginatus",32.0],["Arcyptera microptera",8.0],["Calliptamus italicus",8.0],["Epacromius pulverulentus",4.0],["Oedaleus decorus",4.0],["Oedipoda caerulescens",4.0],["Celes variabilis",4.0]]}},{"type":"Feature","geometry":{"type":"Point","coordinates":[65.53064,50.27345]},"properties":{"region":"Kostanay Region","district":"Amangeldinsky District","place":"Aksuat","zone":"Semi-arid, warm","habitat":"Feather grass–grass steppe","vegetation":"Stipa lessingiana, Stipa capillata, Stipa sareptana, Festuca valesiaca, Koeleria cristata","approx":false,"n_species":5,"total":60.0,"records":[["Calliptamus italicus",28.0],["Ramburiella turcomana",12.0],["Oedaleus decorus",8.0],["Oedipoda miniata",8.0],["Platycleis intermedia",4.0]]}},{"type":"Feature","geometry":{"type":"Point","coordinates":[80.35413,50.3411]},"properties":{"region":"Kyzylorda Region","district":"Syrdarinsky District","place":"Nomer Odin","zone":"Semi-arid, warm","habitat":"Cropland (melons and gourds)","vegetation":"Citrúllus lanátus, Cucumis melo, Cucurbita","approx":false,"n_species":7,"total":100.0,"records":[["Calliptamus barbarus",40.0],["Calliptamus italicus",24.0],["Dociostaurus tartarus",12.0],["Oedaleus decorus",8.0],["Chorthippus biguttulus",8.0],["Oedipoda miniata",4.0],["Oeclipoda cocrulescens",4.0]]}},{"type":"Feature","geometry":{"type":"Point","coordinates":[56.99121,50.351913]},"properties":{"region":"Aktobe Region","district":"Martuksky District","place":"Kurashasay","zone":"Semi-arid, warm","habitat":"Meadow steppe (forbs)","vegetation":"Achillea nobilis, Potentilla spp., Galium verum, Centaurea spp.","approx":false,"n_species":6,"total":96.0,"records":[["Calliptamus italicus",52.0],["Calliptamus barbarus",16.0],["Oedaleus decorus",16.0],["Euchorthippus pulvinatus",4.0],["Oedipoda caerulescens",4.0],["Chorthippus biguttulus",4.0]]}},{"type":"Feature","geometry":{"type":"Point","coordinates":[72.717948,50.475003]},"properties":{"region":"Karaganda Region","district":"Osakarovsky District","place":"Osakarovka","zone":"Semi-arid, moderately warm","habitat":"Cropland (wheat)","vegetation":"Triticum aestivum","approx":false,"n_species":8,"total":72.0,"records":[["Calliptamus italicus",16.0],["Dociostaurus brevicollis",12.0],["Chorthippus biguttulus",12.0],["Chorthippus karelini",12.0],["Euchorthippus pulvinatus",8.0],["Celes variabilis",4.0],["Oedaleus decorus",4.0],["Chorthippus dorsatus",4.0]]}},{"type":"Feature","geometry":{"type":"Point","coordinates":[52.41659,50.53267]},"properties":{"region":"West Kazakhstan Region","district":"Syrymsky District","place":"Zhympity","zone":"Semi-arid, warm","habitat":"Grass steppe","vegetation":"Stipa spp., Festuca valesiaca, Koeleria cristata","approx":false,"n_species":3,"total":46.0,"records":[["Calliptamus italicus",38.0],["Oedaleus decorus",4.0],["Gampsocleis glabra",4.0]]}},{"type":"Feature","geometry":{"type":"Point","coordinates":[79.130175,50.613881]},"properties":{"region":"Abai Region","district":"Beskaragaysky District","place":"Bodene","zone":"Semi-arid, warm","habitat":"Grass steppe","vegetation":"Stipa spp., Festuca valesiaca, Koeleria cristata","approx":false,"n_species":9,"total":108.0,"records":[["Chorthippus paralellus",52.0],["Mecosthetus alliaceus",16.0],["Omocestus haemorrhoidalis",12.0],["Ruspolia nitidula",8.0],["Tettigonia viridissima",4.0],["Platycleis intermedia",4.0],["Acrotylus insubricus",4.0],["Dociostaurus tartarus",4.0],["Notostaurus albicornis",4.0]]}},{"type":"Feature","geometry":{"type":"Point","coordinates":[52.0881,50.64843]},"properties":{"region":"West Kazakhstan Region","district":"Sarymsky District","place":"Algabas","zone":"Semi-arid, warm","habitat":"Grass steppe","vegetation":"Stipa spp., Festuca valesiaca, Koeleria cristata","approx":false,"n_species":5,"total":84.0,"records":[["Calliptamus italicus",60.0],["Oedipoda caerulescens",8.0],["Chorthippus biguttulus",8.0],["Omocestus haemorrhoidalis",4.0],["Acryptera microptera",4.0]]}},{"type":"Feature","geometry":{"type":"Point","coordinates":[80.350215,50.841132]},"properties":{"region":"Kyzylorda Region","district":"Zhalagashsky District","place":"Zubair","zone":"Semi-arid, warm","habitat":"Riparian shrubs and woodland","vegetation":"Elaeagnus angustifolia, Tamarix","approx":false,"n_species":8,"total":56.0,"records":[["Calliptamus barbarus",20.0],["Calliptamus italicus",12.0],["Dericorys albidula",4.0],["Notostaurus albicornis",4.0],["Dociostaurus tartarus",4.0],["Stenobothrus eurasius",4.0],["Stauroderus scalaris",4.0],["Helioscirtus moseri",4.0]]}},{"type":"Feature","geometry":{"type":"Point","coordinates":[56.98121,50.951813]},"properties":{"region":"Aktobe Region","district":"Uilsky District","place":"Shevchenko","zone":"Semi-arid, moderately warm","habitat":"Meadow steppe (forbs)","vegetation":"Achillea nobilis, Potentilla spp., Galium verum, Centaurea spp.","approx":false,"n_species":4,"total":92.0,"records":[["Calliptamus italicus",64.0],["Oedaleus decorus",16.0],["Dociostaurus brevicollis",8.0],["Notostaurus albicornis",4.0]]}},{"type":"Feature","geometry":{"type":"Point","coordinates":[50.30424,51.08792]},"properties":{"region":"West Kazakhstan Region","district":"Baytereksky District","place":"Shipovo","zone":"Semi-arid, warm","habitat":"Grass–wormwood steppe","vegetation":"Artemisia austriaca, Artemisia marschalliana, Artemisia lerchiana, Stipa spp., Festuca valesiaca, Koeleria cristata","approx":false,"n_species":7,"total":164.0,"records":[["Calliptamus italicus",60.0],["Calliptamus italicus",52.0],["Notostaurus albicornis",12.0],["Chorthippus biguttulus",12.0],["Ch. Parallulus",8.0],["Acryptera microptera",8.0],["Oedipoda miniata",4.0],["Oedipoda caerulescens",4.0],["Oedipoda caerulescens",4.0]]}},{"type":"Feature","geometry":{"type":"Point","coordinates":[50.304324,51.08792]},"properties":{"region":"West Kazakhstan Region","district":"Taskalinsky District","place":"Shipovo","zone":"Semi-arid, warm","habitat":"Grass–wormwood steppe","vegetation":"Artemisia austriaca, Artemisia marschalliana, Artemisia lerchiana, Stipa spp., Festuca valesiaca, Koeleria cristata","approx":false,"n_species":5,"total":96.0,"records":[["Chorthippus biguttulus",48.0],["Calliptamus italicus",28.0],["Oedaleus decorus",12.0],["Oedipoda caerulescens",4.0],["Euchorthippus pulvinatus",4.0]]}},{"type":"Feature","geometry":{"type":"Point","coordinates":[50.893388,51.186168]},"properties":{"region":"West Kazakhstan Region","district":"Baytereksky District","place":"Peremetnoe","zone":"Semi-arid, warm","habitat":"Grass–wormwood steppe","vegetation":"Artemisia austriaca, Artemisia marschalliana, Artemisia lerchiana, Stipa spp., Festuca valesiaca, Koeleria cristata","approx":false,"n_species":4,"total":52.0,"records":[["Calliptamus italicus",32.0],["Oedaleus decorus",12.0],["Calliptamus barbarus cephalotes",4.0],["Chorthippus sp.",4.0]]}},{"type":"Feature","geometry":{"type":"Point","coordinates":[72.117792,51.225628]},"properties":{"region":"Karaganda Region","district":"Bukhar-Zhirausky District","place":"Botakara","zone":"Semi-arid, moderately warm","habitat":"Wormwood–grass–forb steppe","vegetation":"Artemisia austriaca, Artemisia marschalliana, Artemisia lerchiana, Stipa spp., Festuca valesiaca, Koeleria cristata, Achillea nobilis, Potentilla spp., Galium verum, Centaurea spp.","approx":false,"n_species":4,"total":64.0,"records":[["Calliptamus italicus",32.0],["Euchorthippus pulvinatus",16.0],["Dociostaurus brevicollis",12.0],["Chorthippus biguttulus",4.0]]}},{"type":"Feature","geometry":{"type":"Point","coordinates":[77.581212,51.27312]},"properties":{"region":"Pavlodar Region","district":"Bayanaulsky District","place":"Kyzyloktyabr","zone":"Semi-arid, warm","habitat":"Meadow steppe (forbs)","vegetation":"Achillea nobilis, Potentilla spp., Galium verum, Centaurea spp.","approx":false,"n_species":3,"total":40.0,"records":[["Oedaleus decorus",20.0],["Calliptamus italicus",12.0],["Chorthippus albomarginatus",8.0]]}},{"type":"Feature","geometry":{"type":"Point","coordinates":[77.30212,51.31272]},"properties":{"region":"Pavlodar Region","district":"Bayanaulsky District","place":"Elubay","zone":"Semi-arid, warm","habitat":"Cropland (wheat)","vegetation":"Triticum aestivum","approx":false,"n_species":5,"total":52.0,"records":[["Oedaleus decorus",20.0],["Arcyptera microptera",16.0],["Dociostaurus brevicollis",8.0],["Calliptamus italicus",4.0],["Chorthippus biguttulus",4.0]]}},{"type":"Feature","geometry":{"type":"Point","coordinates":[70.970227,51.689672]},"properties":{"region":"Akmola Region","district":"Shortandinsky District","place":"Zhdanovo","zone":"Very humid, moderately warm","habitat":"Forb steppe","vegetation":"Achillea nobilis, Potentilla spp., Galium verum, Centaurea spp.","approx":false,"n_species":4,"total":44.0,"records":[["Decticus verrucivorus",20.0],["Montana eversmanni",16.0],["Euthystira brachyptera",4.0],["Gampsocleis glabra",4.0]]}},{"type":"Feature","geometry":{"type":"Point","coordinates":[70.992091,51.721657]},"properties":{"region":"Akmola Region","district":"Shortandinsky District","place":"Shortandy","zone":"Very humid, moderately warm","habitat":"Meadow steppe (forbs)","vegetation":"Achillea nobilis, Potentilla spp., Galium verum, Centaurea spp.","approx":false,"n_species":6,"total":72.0,"records":[["Calliptamus italicus",40.0],["Arcyptera microptera",12.0],["Dociostaurus brevicollis",8.0],["Oedaleus decorus",4.0],["Celes variabilis",4.0],["Dociostaurus kraussi",4.0]]}},{"type":"Feature","geometry":{"type":"Point","coordinates":[71.731915,51.762049]},"properties":{"region":"Akmola Region","district":"Shortandinsky District","place":"Zholymbet","zone":"Humid, moderately warm","habitat":"Wormwood–feather grass steppe","vegetation":"Artemisia austriaca, Artemisia marschalliana, Artemisia lerchiana, Stipa lessingiana, Stipa capillata, Stipa sareptana","approx":false,"n_species":5,"total":56.0,"records":[["Calliptamus italicus",32.0],["Dociostaurus brevicollis",12.0],["Bryodemella tuberculata",4.0],["Stenobothrus fischeri",4.0],["Chorthippus biguttulus",4.0]]}},{"type":"Feature","geometry":{"type":"Point","coordinates":[74.755182,51.774094]},"properties":{"region":"Akmola Region","district":"Shortandinsky District","place":"Shiderty","zone":"Humid, moderately warm","habitat":"Wormwood steppe","vegetation":"Artemisia austriaca, Artemisia marschalliana, Artemisia lerchiana","approx":false,"n_species":5,"total":44.0,"records":[["Arcyptera microptera",20.0],["Dociostaurus brevicollis",12.0],["Calliptamus italicus",4.0],["Stenobothrus eurasius",4.0],["Montana eversmanni",4.0]]}},{"type":"Feature","geometry":{"type":"Point","coordinates":[77.308884,51.9515]},"properties":{"region":"Pavlodar Region","district":"Terenkolsky District","place":"Kenes","zone":"Semi-arid, moderately warm","habitat":"Forb steppe","vegetation":"Achillea nobilis, Potentilla spp., Galium verum, Centaurea spp.","approx":false,"n_species":5,"total":48.0,"records":[["Oedaleus decorus",16.0],["Calliptamus italicus",12.0],["Chorthippus biguttulus",12.0],["Sphingonotus coerulipes uvarovianus",4.0],["Dociostaurus brevicollis",4.0]]}},{"type":"Feature","geometry":{"type":"Point","coordinates":[77.29608,51.96929]},"properties":{"region":"Pavlodar Region","district":"Terenkolsky District","place":"Kenes","zone":"Semi-arid, moderately warm","habitat":"Fescue steppe","vegetation":"Festuca valesiaca","approx":false,"n_species":5,"total":36.0,"records":[["Chorthippus albomarginatus",16.0],["Calliptamus italicus",8.0],["Dociostaurus brevicollis",4.0],["Euchorthippus pulvinatus",4.0],["Chorthippus biguttulus",4.0]]}},{"type":"Feature","geometry":{"type":"Point","coordinates":[64.259932,52.088358]},"properties":{"region":"Kostanay Region","district":"Kostanaysky District","place":"Sulukulsky","zone":"Semi-arid, moderately warm","habitat":"Forb steppe","vegetation":"Achillea nobilis, Potentilla spp., Galium verum, Centaurea spp.","approx":false,"n_species":9,"total":180.0,"records":[["Aeropus sibiricus",44.0],["Chorthippus albomarginatus",24.0],["Chorthippus biguttulus",24.0],["Dociostaurus brevicollis",24.0],["Calliptamus italicus",20.0],["Stenobothrus fischeri",16.0],["Stenobothrus eurasius",12.0],["Euchorthippus pulvinatus",8.0],["Euthystira brachyptera",8.0]]}},{"type":"Feature","geometry":{"type":"Point","coordinates":[76.913331,52.50382]},"properties":{"region":"Pavlodar Region","district":"Pavlodarsky District","place":"Berezovka","zone":"Semi-arid, moderately warm","habitat":"Grass steppe","vegetation":"Stipa spp., Festuca valesiaca, Koeleria cristata","approx":false,"n_species":8,"total":96.0,"records":[["Dociostaurus kraussi",20.0],["Podisma pedestris",12.0],["Dociostaurus brevicollis",12.0],["Aeropus sibiricus",12.0],["Euthystira brachyptera",12.0],["Chorthippus sp.",12.0],["Arcyptera microptera",8.0],["Gampsocleis glabra",8.0]]}},{"type":"Feature","geometry":{"type":"Point","coordinates":[70.719993,52.615484]},"properties":{"region":"Akmola Region","district":"Birzhan-Sala District","place":"Karl Marks","zone":"Very humid, moderately warm","habitat":"Fescue–wormwood steppe","vegetation":"Artemisia austriaca, Artemisia marschalliana, Artemisia lerchiana, Festuca valesiaca","approx":false,"n_species":8,"total":84.0,"records":[["Stenobothrus sp.",24.0],["Aeropus sibiricus",20.0],["Montana sp.",12.0],["Notostaurus albicornis",12.0],["Euthystira braahyptera",4.0],["Gampsocleis glabra",4.0],["Calliptamus italicus",4.0],["Oedaleus decorus",4.0]]}},{"type":"Feature","geometry":{"type":"Point","coordinates":[70.719103,52.688585]},"properties":{"region":"Akmola Region","district":"Birzhan-Sala District","place":"Kudukagash","zone":"Very humid, moderately warm","habitat":"Meadow steppe (forbs)","vegetation":"Achillea nobilis, Potentilla spp., Galium verum, Centaurea spp.","approx":false,"n_species":5,"total":116.0,"records":[["Aeropus sibiricus",64.0],["Celes variabilis",20.0],["Arcyptera microptera",16.0],["Oedaleus decorus",12.0],["Oedipoda caerulescens",4.0]]}},{"type":"Feature","geometry":{"type":"Point","coordinates":[70.763779,52.81231]},"properties":{"region":"Akmola Region","district":"Birzhan Sala District","place":"Pervomayka","zone":"Very humid, moderately warm","habitat":"Wormwood–grass steppe","vegetation":"Artemisia austriaca, Artemisia marschalliana, Artemisia lerchiana, Stipa spp., Festuca valesiaca, Koeleria cristata","approx":false,"n_species":8,"total":60.0,"records":[["Stauroderus scalaris",12.0],["Chorthippus apricarius",12.0],["Arcyptera fusca",12.0],["Chorthippus albomarginatus",8.0],["Dociostaurus brevicollis",4.0],["Stenobothrus fischeri",4.0],["Onconotus laxmanni",4.0],["Podisma pedestris",4.0]]}},{"type":"Feature","geometry":{"type":"Point","coordinates":[70.785408,52.819151]},"properties":{"region":"Akmola Region","district":"Birzhan Sala District","place":"Pervomayka","zone":"Very humid, moderately warm","habitat":"Wormwood–grass steppe","vegetation":"Artemisia austriaca, Artemisia marschalliana, Artemisia lerchiana, Stipa spp., Festuca valesiaca, Koeleria cristata","approx":false,"n_species":11,"total":164.0,"records":[["Podisma pedestris",44.0],["Dociostaurus kraussi",24.0],["Stenobothrus lineatus",24.0],["Arcyptera microptera",12.0],["Stenobothrus fischeri",12.0],["Celes variabilis",8.0],["Aeropus sibiricus",8.0],["Stenobothrus fischeri",8.0],["Dociostaurus brevicollis",4.0],["Aeropus sibiricus",4.0],["Aeropedellus baliolus",4.0],["Dociostaurus brevicollis",4.0],["Stenobothrus lineatus",4.0],["Omocestus haemorrhoidalis",4.0],["Stenobothrus nigromaculatus",null]]}},{"type":"Feature","geometry":{"type":"Point","coordinates":[69.133656,52.856378]},"properties":{"region":"Akmola Region","district":"Zerendinsky District","place":"Zerenda","zone":"Humid, moderately warm","habitat":"Grass–wormwood steppe","vegetation":"Artemisia austriaca, Artemisia marschalliana, Artemisia lerchiana, Stipa spp., Festuca valesiaca, Koeleria cristata","approx":false,"n_species":7,"total":64.0,"records":[["Arcyptera microptera",28.0],["Calliptamus italicus",8.0],["Chorthippus albomarginatus",8.0],["Montana eversmanni",8.0],["Dociostaurus kraussi",4.0],["Stenobothrus fischeri",4.0],["Oedaleus decorus",4.0]]}},{"type":"Feature","geometry":{"type":"Point","coordinates":[76.316314,53.027386]},"properties":{"region":"Pavlodar Region","district":"Terenkolsky District","place":"Peschanoe","zone":"Semi-arid, moderately warm","habitat":"Wormwood–grass steppe","vegetation":"Artemisia austriaca, Artemisia marschalliana, Artemisia lerchiana, Stipa spp., Festuca valesiaca, Koeleria cristata","approx":false,"n_species":6,"total":88.0,"records":[["Chorthippus albomarginatus",28.0],["Arcyptera microptera",20.0],["Dociostaurus brevicollis",12.0],["Podisma pedestris",12.0],["Stenobothrus fischeri",12.0],["Aeropus sibiricus",4.0]]}},{"type":"Feature","geometry":{"type":"Point","coordinates":[63.777149,53.205621]},"properties":{"region":"Kostanay Region","district":"Kostanay","place":"Kostanay","zone":"Humid, moderately warm","habitat":"Old crested wheatgrass plantings","vegetation":"Житняк ширококолосый, или гребенчатый, Житняк пустынный, Житняк сибирский, или ломкий","approx":false,"n_species":9,"total":120.0,"records":[["Chorthippus albomarginatus",20.0],["Chorthippus biguttulus",20.0],["Stenobothrus fischeri",20.0],["Celes variabilis",20.0],["Dociostaurus brevicollis",12.0],["Aeropus sibiricus",8.0],["Euchorthippus pulvinatus",8.0],["Oedaleus decorus",8.0],["Stenobothrus nigromaculatus",4.0]]}},{"type":"Feature","geometry":{"type":"Point","coordinates":[69.2277,54.515926]},"properties":{"region":"North Kazakhstan Region","district":"Akkayynsky District","place":"Astrakhanka","zone":"Very humid, moderately warm","habitat":"Grass steppe","vegetation":"Stipa spp., Festuca valesiaca, Koeleria cristata","approx":false,"n_species":8,"total":76.0,"records":[["Oedaleus decorus",12.0],["Chorthippus biguttulus",12.0],["Dociostaurus brevicollis",12.0],["Celes variabilis",12.0],["Stenobothrus eurasius",12.0],["Arcyptera microptera",8.0],["Dociostaurus kraussi",4.0],["Omocestus haemorrhoidalis",4.0]]}},{"type":"Feature","geometry":{"type":"Point","coordinates":[69.227712,54.515932]},"properties":{"region":"North Kazakhstan Region","district":"Akkayynsky District","place":"Astrakhanka","zone":"Very humid, moderately warm","habitat":"Meadow steppe (forbs)","vegetation":"Achillea nobilis, Potentilla spp., Galium verum, Centaurea spp.","approx":false,"n_species":5,"total":52.0,"records":[["Dociostaurus kraussi",12.0],["Arcyptera microptera",12.0],["Chorthippus biguttulus",8.0],["Oedaleus decorus",8.0],["Celes variabilis",8.0],["Oedaleus decorus",4.0]]}},{"type":"Feature","geometry":{"type":"Point","coordinates":[69.66087,54.751699]},"properties":{"region":"North Kazakhstan Region","district":"Petropavlovsk","place":"Petropavlovsk","zone":"Very humid, moderately warm","habitat":"Grass–forb steppe","vegetation":"Stipa spp., Festuca valesiaca, Koeleria cristata, Achillea nobilis, Potentilla spp., Galium verum, Centaurea spp.","approx":false,"n_species":6,"total":144.0,"records":[["Chorthippus albomarginatus",56.0],["Chorthippus biguttulus",36.0],["Arcyptera microptera",24.0],["Chorthippus apricarius",20.0],["Omocestus haemorrhoidalis",4.0],["Euthystira braahyptera",4.0]]}},{"type":"Feature","geometry":{"type":"Point","coordinates":[68.485649,54.929738]},"properties":{"region":"North Kazakhstan Region","district":"Esilsky District","place":"Voskresenovka","zone":"Very humid, moderately warm","habitat":"Wormwood–grass steppe","vegetation":"Artemisia austriaca, Artemisia marschalliana, Artemisia lerchiana, Stipa spp., Festuca valesiaca, Koeleria cristata","approx":false,"n_species":7,"total":96.0,"records":[["Omocestus haemorrhoidalis",44.0],["Chorthippus biguttulus",20.0],["Chorthippus albomarginatus",12.0],["Euchorthippus pulvinatus",8.0],["Stenobothrus lineatus",4.0],["Arcyptera microptera",4.0],["Epacromius pulverulentus",4.0]]}},{"type":"Feature","geometry":{"type":"Point","coordinates":[69.236547,54.945229]},"properties":{"region":"North Kazakhstan Region","district":"Kyzylzharsky District","place":"Penkovo","zone":"Very humid, moderately warm","habitat":"Wormwood steppe","vegetation":"Artemisia austriaca, Artemisia marschalliana, Artemisia lerchiana","approx":false,"n_species":7,"total":40.0,"records":[["Dociostaurus brevicollis",12.0],["Oedaleus decorus",8.0],["Calliptamus italicus",4.0],["Ramburiella turcomana",4.0],["Stenobothrus eurasius",4.0],["Aeropedellus baliolus",4.0],["Stauroderus scalaris",4.0]]}}]}